{"type": "FeatureCollection", "features": [{"type": "Feature", "properties": {"nome": "Dores", "municipio": "Dores", "fonte": "IBGE (malha territorial oficial)", "municipio_ibge_nome": "Nossa Senhora das Dores", "municipio_ibge_codigo": "2804607"}, "geometry": {"type": "Polygon", "coordinates": [[[-37.2073, -10.6076], [-37.2056, -10.6026], [-37.1868, -10.5857], [-37.1758, -10.5797], [-37.1708, -10.5706], [-37.1808, -10.5628], [-37.1566, -10.529], [-37.1397, -10.507], [-37.1387, -10.4701], [-37.1356, -10.452], [-37.1181, -10.4408], [-37.1132, -10.4333], [-37.1118, -10.4121], [-37.1175, -10.4093], [-37.1339, -10.4101], [-37.147, -10.4178], [-37.1609, -10.4104], [-37.1692, -10.4168], [-37.1824, -10.4157], [-37.1885, -10.4068], [-37.2082, -10.4022], [-37.2116, -10.3914], [-37.2283, -10.3779], [-37.2325, -10.3636], [-37.2397, -10.3596], [-37.2417, -10.3506], [-37.2396, -10.3425], [-37.2482, -10.3251], [-37.2491, -10.3186], [-37.2374, -10.3087], [-37.2396, -10.298], [-37.2585, -10.3053], [-37.2652, -10.3036], [-37.274, -10.3065], [-37.2878, -10.3187], [-37.2954, -10.3198], [-37.3022, -10.3266], [-37.3018, -10.334], [-37.3166, -10.3578], [-37.3224, -10.3615], [-37.3275, -10.3732], [-37.3412, -10.3842], [-37.3474, -10.3958], [-37.3341, -10.4055], [-37.3253, -10.4186], [-37.3342, -10.4263], [-37.3309, -10.4319], [-37.3225, -10.4343], [-37.3041, -10.4286], [-37.3015, -10.4364], [-37.2878, -10.4543], [-37.2918, -10.4562], [-37.2891, -10.4672], [-37.2804, -10.4615], [-37.2746, -10.4659], [-37.3495, -10.4916], [-37.3598, -10.4835], [-37.3468, -10.5068], [-37.3205, -10.5402], [-37.3107, -10.5656], [-37.3028, -10.5747], [-37.2962, -10.5766], [-37.2842, -10.5736], [-37.2626, -10.579], [-37.248, -10.5944], [-37.2357, -10.6037], [-37.2305, -10.6037], [-37.2171, -10.6118], [-37.2041, -10.6242], [-37.2024, -10.6158], [-37.2073, -10.6076]]]}}, {"type": "Feature", "properties": {"nome": "Canindé", "municipio": "Canindé", "fonte": "IBGE (malha territorial oficial)", "municipio_ibge_nome": "Canindé de São Francisco", "municipio_ibge_codigo": "2801207"}, "geometry": {"type": "Polygon", "coordinates": [[[-37.6659, -9.6659], [-37.6704, -9.656], [-37.6783, -9.6488], [-37.6897, -9.643], [-37.7101, -9.6301], [-37.7249, -9.63], [-37.747, -9.6249], [-37.7732, -9.635], [-37.7865, -9.6387], [-37.7931, -9.6206], [-37.8098, -9.607], [-37.8182, -9.5929], [-37.8318, -9.5949], [-37.8366, -9.5845], [-37.8422, -9.5794], [-37.8638, -9.5666], [-37.8685, -9.5617], [-37.8862, -9.5502], [-37.8941, -9.5395], [-37.9171, -9.549], [-37.9354, -9.5419], [-37.9482, -9.5388], [-37.9563, -9.5341], [-37.9778, -9.5315], [-37.9893, -9.5274], [-38.0033, -9.515], [-38.0142, -9.5278], [-38.015, -9.5355], [-38.0226, -9.5405], [-38.0239, -9.5485], [-38.0186, -9.5507], [-38.0207, -9.5621], [-38.0309, -9.5741], [-38.0373, -9.5692], [-38.042, -9.575], [-38.0372, -9.581], [-38.0505, -9.5885], [-38.061, -9.5876], [-38.0603, -9.5954], [-38.0527, -9.6049], [-38.0558, -9.6138], [-38.0512, -9.6217], [-38.0526, -9.6328], [-38.0395, -9.6276], [-38.0353, -9.6329], [-38.0196, -9.6372], [-38.0172, -9.6432], [-38.0093, -9.6499], [-38.0205, -9.66], [-38.0279, -9.656], [-38.0322, -9.6607], [-38.0343, -9.6867], [-38.0415, -9.6872], [-38.045, -9.6978], [-38.0429, -9.7053], [-38.0433, -9.7234], [-38.0368, -9.7397], [-38.0387, -9.7494], [-38.0315, -9.7615], [-38.0326, -9.7701], [-38.0201, -9.7776], [-38.0216, -9.788], [-38.018, -9.8025], [-38.0007, -9.8158], [-37.9983, -9.8257], [-38.0031, -9.8383], [-37.9954, -9.8461], [-38.0024, -9.8572], [-38.01, -9.854], [-38.0071, -9.8688], [-37.9952, -9.8784], [-37.9921, -9.8943], [-37.9973, -9.9054], [-38.0035, -9.9047], [-37.9968, -9.9187], [-37.9886, -9.9203], [-37.975, -9.9369], [-37.9666, -9.9378], [-37.9554, -9.943], [-37.9446, -9.9428], [-37.9308, -9.9352], [-37.9291, -9.9309], [-37.9123, -9.9185], [-37.9076, -9.9109], [-37.9021, -9.9189], [-37.896, -9.912], [-37.8896, -9.9143], [-37.8771, -9.9085], [-37.8655, -9.8962], [-37.8705, -9.8898], [-37.8712, -9.8677], [-37.8667, -9.8446], [-37.8696, -9.8409], [-37.863, -9.8241], [-37.8587, -9.8017], [-37.8548, -9.7934], [-37.8531, -9.7777], [-37.844, -9.7752], [-37.8409, -9.7589], [-37.844, -9.7492], [-37.8348, -9.7213], [-37.8348, -9.7101], [-37.8311, -9.7033], [-37.6659, -9.6659]]]}}, {"type": "Feature", "properties": {"nome": "Capela", "municipio": "Capela", "fonte": "IBGE (malha territorial oficial)", "municipio_ibge_nome": "Capela", "municipio_ibge_codigo": "2801306"}, "geometry": {"type": "Polygon", "coordinates": [[[-37.1387, -10.4701], [-37.1225, -10.4758], [-37.1149, -10.4817], [-37.1131, -10.4935], [-37.1045, -10.5029], [-37.1015, -10.5114], [-37.1024, -10.5306], [-37.0804, -10.5274], [-37.065, -10.5305], [-37.0661, -10.5409], [-37.0732, -10.5577], [-37.0728, -10.5668], [-37.0685, -10.573], [-37.077, -10.5842], [-37.0653, -10.5928], [-37.0643, -10.6038], [-37.0718, -10.6151], [-37.054, -10.6215], [-37.0362, -10.6256], [-37.0113, -10.6413], [-36.9755, -10.5416], [-36.9778, -10.5302], [-36.9564, -10.5237], [-36.935, -10.4495], [-36.9491, -10.4424], [-36.9613, -10.4423], [-36.9675, -10.4242], [-36.9737, -10.4192], [-36.978, -10.408], [-36.9826, -10.4046], [-36.9837, -10.3881], [-36.9794, -10.3783], [-36.9953, -10.3584], [-37.0013, -10.328], [-37.0181, -10.3321], [-37.0382, -10.3266], [-37.0521, -10.3423], [-37.0626, -10.3291], [-37.0776, -10.3389], [-37.085, -10.3461], [-37.0899, -10.3576], [-37.0967, -10.3567], [-37.1016, -10.3679], [-37.1115, -10.3719], [-37.1161, -10.3685], [-37.125, -10.375], [-37.1268, -10.385], [-37.1184, -10.3877], [-37.1195, -10.399], [-37.1104, -10.4042], [-37.1175, -10.4093], [-37.1118, -10.4121], [-37.1132, -10.4333], [-37.1181, -10.4408], [-37.1356, -10.452], [-37.1387, -10.4701]]]}}, {"type": "Feature", "properties": {"nome": "Cumbe", "municipio": "Cumbe", "fonte": "IBGE (malha territorial oficial)", "municipio_ibge_nome": "Cumbe", "municipio_ibge_codigo": "2801900"}, "geometry": {"type": "Polygon", "coordinates": [[[-37.2396, -10.298], [-37.2374, -10.3087], [-37.2491, -10.3186], [-37.2482, -10.3251], [-37.2396, -10.3425], [-37.2417, -10.3506], [-37.2397, -10.3596], [-37.2325, -10.3636], [-37.2283, -10.3779], [-37.2116, -10.3914], [-37.2082, -10.4022], [-37.1885, -10.4068], [-37.1824, -10.4157], [-37.1692, -10.4168], [-37.1609, -10.4104], [-37.147, -10.4178], [-37.1339, -10.4101], [-37.1175, -10.4093], [-37.1104, -10.4042], [-37.1195, -10.399], [-37.1184, -10.3877], [-37.1268, -10.385], [-37.125, -10.375], [-37.135, -10.3582], [-37.147, -10.3664], [-37.1531, -10.3672], [-37.1547, -10.3449], [-37.1641, -10.3398], [-37.1716, -10.3402], [-37.173, -10.3329], [-37.1668, -10.3276], [-37.1709, -10.3229], [-37.1744, -10.3107], [-37.1846, -10.3084], [-37.2013, -10.2969], [-37.2098, -10.296], [-37.2164, -10.3006], [-37.2229, -10.2983], [-37.2358, -10.2796], [-37.2358, -10.2743], [-37.2433, -10.2613], [-37.2514, -10.2552], [-37.2613, -10.2384], [-37.2677, -10.2394], [-37.2867, -10.2559], [-37.2764, -10.262], [-37.27, -10.2624], [-37.2574, -10.269], [-37.2561, -10.2802], [-37.2415, -10.2874], [-37.2396, -10.298]]]}}, {"type": "Feature", "properties": {"nome": "Feira nova", "municipio": "Feira nova", "fonte": "IBGE (malha territorial oficial)", "municipio_ibge_nome": "Feira Nova", "municipio_ibge_codigo": "2802205"}, "geometry": {"type": "Polygon", "coordinates": [[[-37.3971, -10.2569], [-37.3919, -10.2641], [-37.3898, -10.2763], [-37.3955, -10.2884], [-37.3848, -10.2984], [-37.3829, -10.3156], [-37.3729, -10.3281], [-37.3627, -10.3281], [-37.3587, -10.3455], [-37.3542, -10.344], [-37.3499, -10.3564], [-37.3553, -10.3696], [-37.3491, -10.3715], [-37.349, -10.3844], [-37.3412, -10.3842], [-37.3275, -10.3732], [-37.3224, -10.3615], [-37.3166, -10.3578], [-37.3018, -10.334], [-37.3022, -10.3266], [-37.2954, -10.3198], [-37.2878, -10.3187], [-37.274, -10.3065], [-37.2652, -10.3036], [-37.2585, -10.3053], [-37.2396, -10.298], [-37.2415, -10.2874], [-37.2561, -10.2802], [-37.2574, -10.269], [-37.27, -10.2624], [-37.2764, -10.262], [-37.2867, -10.2559], [-37.2677, -10.2394], [-37.2613, -10.2384], [-37.3323, -10.2108], [-37.3837, -10.2183], [-37.3971, -10.2569]]]}}, {"type": "Feature", "properties": {"nome": "Gararú", "municipio": "Gararú", "fonte": "IBGE (malha territorial oficial)", "municipio_ibge_nome": "Gararu", "municipio_ibge_codigo": "2802403"}, "geometry": {"type": "Polygon", "coordinates": [[[-37.062, -10.0615], [-37.0298, -10.0569], [-37.0069, -10.0377], [-36.9535, -10.0228], [-36.9617, -9.9964], [-36.9654, -9.9894], [-36.9733, -9.9844], [-36.9847, -9.9832], [-36.9957, -9.9724], [-37.0044, -9.9781], [-37.0331, -9.9876], [-37.0509, -9.9821], [-37.065, -9.9806], [-37.0679, -9.9735], [-37.0828, -9.9579], [-37.0859, -9.9517], [-37.1063, -9.9394], [-37.112, -9.9278], [-37.1261, -9.9203], [-37.1338, -9.9138], [-37.146, -9.9042], [-37.1625, -9.8938], [-37.1695, -9.8941], [-37.1776, -9.899], [-37.196, -9.896], [-37.214, -9.8998], [-37.2263, -9.8977], [-37.2313, -9.9127], [-37.2341, -9.9585], [-37.2577, -9.9587], [-37.2608, -9.9644], [-37.2707, -9.9621], [-37.2723, -9.9695], [-37.2648, -9.9925], [-37.281, -9.9876], [-37.2871, -9.9938], [-37.2857, -10.0091], [-37.2958, -10.0156], [-37.3006, -10.0035], [-37.3056, -9.9997], [-37.3143, -10.0008], [-37.3163, -10.0088], [-37.3276, -10.0093], [-37.3344, -10.0], [-37.3319, -9.9929], [-37.3368, -9.9864], [-37.3418, -9.9901], [-37.342, -9.9989], [-37.347, -10.0004], [-37.3494, -10.0127], [-37.354, -10.0156], [-37.3703, -10.0071], [-37.3738, -10.0225], [-37.3847, -10.0304], [-37.3824, -10.038], [-37.401, -10.0515], [-37.4094, -10.0514], [-37.4201, -10.0622], [-37.4108, -10.0649], [-37.3543, -10.1109], [-37.3317, -10.1286], [-37.3463, -10.1564], [-37.3141, -10.1538], [-37.2973, -10.1548], [-37.2818, -10.1585], [-37.2834, -10.1695], [-37.2783, -10.1709], [-37.2715, -10.1642], [-37.2613, -10.163], [-37.2613, -10.158], [-37.2472, -10.1476], [-37.2361, -10.1595], [-37.2298, -10.155], [-37.2206, -10.1554], [-37.2234, -10.1469], [-37.2203, -10.1357], [-37.2238, -10.1183], [-37.2298, -10.1151], [-37.2288, -10.1003], [-37.2164, -10.1035], [-37.2051, -10.0925], [-37.2114, -10.0838], [-37.2069, -10.079], [-37.1983, -10.0806], [-37.1937, -10.074], [-37.1978, -10.0681], [-37.1844, -10.055], [-37.1926, -10.0519], [-37.1871, -10.039], [-37.1785, -10.0405], [-37.1708, -10.0495], [-37.1593, -10.0528], [-37.1517, -10.0509], [-37.1311, -10.0541], [-37.128, -10.0573], [-37.1117, -10.0517], [-37.1027, -10.051], [-37.062, -10.0615]]]}}, {"type": "Feature", "properties": {"nome": "Gracho Cardoso", "municipio": "Gracho Cardoso", "fonte": "IBGE (malha territorial oficial)", "municipio_ibge_nome": "Graccho Cardoso", "municipio_ibge_codigo": "2802601"}, "geometry": {"type": "Polygon", "coordinates": [[[-37.2613, -10.2384], [-37.2514, -10.2552], [-37.2433, -10.2613], [-37.2358, -10.2743], [-37.2358, -10.2796], [-37.2229, -10.2983], [-37.2164, -10.3006], [-37.2098, -10.296], [-37.2013, -10.2969], [-37.1846, -10.3084], [-37.1744, -10.3107], [-37.1709, -10.3229], [-37.1668, -10.3276], [-37.173, -10.3329], [-37.1716, -10.3402], [-37.1641, -10.3398], [-37.1642, -10.3311], [-37.1553, -10.3277], [-37.1502, -10.3213], [-37.1551, -10.3063], [-37.1474, -10.3017], [-37.1508, -10.2889], [-37.1387, -10.2789], [-37.1395, -10.2593], [-37.1433, -10.2567], [-37.1407, -10.2463], [-37.149, -10.2414], [-37.151, -10.2358], [-37.1484, -10.217], [-37.1432, -10.2053], [-37.1365, -10.2003], [-37.1374, -10.1937], [-37.1462, -10.1914], [-37.1547, -10.1844], [-37.1505, -10.1632], [-37.1651, -10.1717], [-37.1725, -10.1709], [-37.1815, -10.1741], [-37.1867, -10.1652], [-37.2028, -10.1589], [-37.2061, -10.1456], [-37.2203, -10.1357], [-37.2234, -10.1469], [-37.2206, -10.1554], [-37.2298, -10.155], [-37.2361, -10.1595], [-37.2472, -10.1476], [-37.2613, -10.158], [-37.2613, -10.163], [-37.2715, -10.1642], [-37.2783, -10.1709], [-37.2834, -10.1695], [-37.2818, -10.1585], [-37.2973, -10.1548], [-37.3141, -10.1538], [-37.3323, -10.2108], [-37.2613, -10.2384]]]}}, {"type": "Feature", "properties": {"nome": "Itabi", "municipio": "Itabi", "fonte": "IBGE (malha territorial oficial)", "municipio_ibge_nome": "Itabi", "municipio_ibge_codigo": "2803104"}, "geometry": {"type": "Polygon", "coordinates": [[[-37.062, -10.0615], [-37.1027, -10.051], [-37.1117, -10.0517], [-37.128, -10.0573], [-37.1311, -10.0541], [-37.1517, -10.0509], [-37.1593, -10.0528], [-37.1708, -10.0495], [-37.1785, -10.0405], [-37.1871, -10.039], [-37.1926, -10.0519], [-37.1844, -10.055], [-37.1978, -10.0681], [-37.1937, -10.074], [-37.1983, -10.0806], [-37.2069, -10.079], [-37.2114, -10.0838], [-37.2051, -10.0925], [-37.2164, -10.1035], [-37.2288, -10.1003], [-37.2298, -10.1151], [-37.2238, -10.1183], [-37.2203, -10.1357], [-37.2061, -10.1456], [-37.2028, -10.1589], [-37.1867, -10.1652], [-37.1815, -10.1741], [-37.1725, -10.1709], [-37.1651, -10.1717], [-37.1505, -10.1632], [-37.1504, -10.1631], [-37.0903, -10.1448], [-37.0665, -10.1364], [-37.068, -10.0923], [-37.062, -10.0615]]]}}, {"type": "Feature", "properties": {"nome": "M. Alegre", "municipio": "M. Alegre", "fonte": "IBGE (malha territorial oficial)", "municipio_ibge_nome": "Monte Alegre de Sergipe", "municipio_ibge_codigo": "2804201"}, "geometry": {"type": "Polygon", "coordinates": [[[-37.4201, -10.0622], [-37.4701, -10.0225], [-37.5632, -9.999], [-37.5865, -9.9992], [-37.5862, -10.0099], [-37.5953, -10.0161], [-37.609, -10.0196], [-37.6146, -10.0265], [-37.6427, -10.0213], [-37.6555, -10.0133], [-37.6662, -10.0157], [-37.6738, -10.0263], [-37.6846, -10.0284], [-37.6876, -10.0231], [-37.6981, -10.0194], [-37.7021, -10.0138], [-37.724, -10.0284], [-37.731, -10.024], [-37.7466, -10.027], [-37.7553, -10.0258], [-37.7646, -10.031], [-37.7738, -10.0298], [-37.7806, -10.0333], [-37.7908, -10.0329], [-37.7826, -10.0436], [-37.7882, -10.0694], [-37.7919, -10.0713], [-37.7946, -10.0871], [-37.7996, -10.0897], [-37.7986, -10.0978], [-37.8019, -10.1128], [-37.7916, -10.1205], [-37.7856, -10.1293], [-37.7779, -10.1341], [-37.7745, -10.1446], [-37.7772, -10.1338], [-37.7812, -10.1282], [-37.783, -10.1123], [-37.7864, -10.1037], [-37.7853, -10.095], [-37.7488, -10.1091], [-37.7311, -10.1113], [-37.7232, -10.1196], [-37.707, -10.1222], [-37.6971, -10.1286], [-37.6876, -10.1218], [-37.6786, -10.1226], [-37.6758, -10.1277], [-37.6621, -10.129], [-37.6574, -10.1205], [-37.6519, -10.1209], [-37.6458, -10.1109], [-37.6377, -10.1109], [-37.6337, -10.1054], [-37.622, -10.1035], [-37.616, -10.0953], [-37.5954, -10.0971], [-37.585, -10.0946], [-37.5771, -10.1018], [-37.5715, -10.1028], [-37.5573, -10.1224], [-37.5522, -10.1126], [-37.5395, -10.1096], [-37.5329, -10.1142], [-37.5036, -10.102], [-37.4958, -10.0972], [-37.4887, -10.1001], [-37.4827, -10.0897], [-37.4757, -10.096], [-37.4648, -10.0917], [-37.4595, -10.0959], [-37.4595, -10.1035], [-37.4455, -10.1015], [-37.4378, -10.1031], [-37.436, -10.0956], [-37.4401, -10.0913], [-37.4427, -10.0761], [-37.4274, -10.0704], [-37.4125, -10.0745], [-37.4139, -10.0678], [-37.4201, -10.0622]]]}}, {"type": "Feature", "properties": {"nome": "Glória", "municipio": "Glória", "fonte": "IBGE (malha territorial oficial)", "municipio_ibge_nome": "Nossa Senhora da Glória", "municipio_ibge_codigo": "2804508"}, "geometry": {"type": "Polygon", "coordinates": [[[-37.5966, -10.2505], [-37.5889, -10.2438], [-37.5821, -10.2422], [-37.5634, -10.2599], [-37.5584, -10.258], [-37.54, -10.2588], [-37.5369, -10.2785], [-37.5321, -10.283], [-37.5079, -10.2909], [-37.5045, -10.2953], [-37.496, -10.2906], [-37.4895, -10.2831], [-37.4789, -10.2906], [-37.4611, -10.2787], [-37.4591, -10.2879], [-37.4462, -10.2957], [-37.4395, -10.2972], [-37.4314, -10.3054], [-37.4272, -10.3011], [-37.4187, -10.3068], [-37.4097, -10.3046], [-37.4033, -10.292], [-37.4051, -10.2578], [-37.3971, -10.2569], [-37.3837, -10.2183], [-37.3323, -10.2108], [-37.3141, -10.1538], [-37.3463, -10.1564], [-37.3317, -10.1286], [-37.3543, -10.1109], [-37.4108, -10.0649], [-37.4201, -10.0622], [-37.4139, -10.0678], [-37.4125, -10.0745], [-37.4274, -10.0704], [-37.4427, -10.0761], [-37.4401, -10.0913], [-37.436, -10.0956], [-37.4378, -10.1031], [-37.4455, -10.1015], [-37.4595, -10.1035], [-37.4595, -10.0959], [-37.4648, -10.0917], [-37.4757, -10.096], [-37.4827, -10.0897], [-37.4887, -10.1001], [-37.4958, -10.0972], [-37.5036, -10.102], [-37.5329, -10.1142], [-37.5395, -10.1096], [-37.5522, -10.1126], [-37.5573, -10.1224], [-37.5715, -10.1028], [-37.5771, -10.1018], [-37.585, -10.0946], [-37.5954, -10.0971], [-37.616, -10.0953], [-37.622, -10.1035], [-37.6337, -10.1054], [-37.6377, -10.1109], [-37.6458, -10.1109], [-37.6519, -10.1209], [-37.6574, -10.1205], [-37.6621, -10.129], [-37.6758, -10.1277], [-37.6786, -10.1226], [-37.6876, -10.1218], [-37.6971, -10.1286], [-37.707, -10.1222], [-37.7232, -10.1196], [-37.7311, -10.1113], [-37.7488, -10.1091], [-37.7853, -10.095], [-37.7864, -10.1037], [-37.783, -10.1123], [-37.7812, -10.1282], [-37.7772, -10.1338], [-37.7745, -10.1446], [-37.7833, -10.1795], [-37.7822, -10.1856], [-37.7656, -10.1962], [-37.7452, -10.1978], [-37.7324, -10.1944], [-37.7212, -10.1878], [-37.7031, -10.192], [-37.7008, -10.2007], [-37.691, -10.2043], [-37.6769, -10.2061], [-37.654, -10.218], [-37.6491, -10.226], [-37.6289, -10.2413], [-37.6102, -10.2455], [-37.6065, -10.2395], [-37.5966, -10.2505]]]}}, {"type": "Feature", "properties": {"nome": "N.S. Lourdes", "municipio": "N.S. Lourdes", "fonte": "IBGE (malha territorial oficial)", "municipio_ibge_nome": "Nossa Senhora de Lourdes", "municipio_ibge_codigo": "2804706"}, "geometry": {"type": "Polygon", "coordinates": [[[-36.9535, -10.0228], [-37.0069, -10.0377], [-37.0298, -10.0569], [-37.062, -10.0615], [-37.068, -10.0923], [-37.0665, -10.1364], [-37.0568, -10.1312], [-37.0555, -10.1266], [-37.045, -10.1252], [-37.0451, -10.1333], [-37.0371, -10.1356], [-37.0316, -10.124], [-37.0082, -10.1041], [-36.9909, -10.0851], [-36.9484, -10.0696], [-36.9566, -10.0537], [-36.9528, -10.0294], [-36.9535, -10.0228]]]}}, {"type": "Feature", "properties": {"nome": "P. Redondo", "municipio": "P. Redondo", "fonte": "IBGE (malha territorial oficial)", "municipio_ibge_nome": "Poço Redondo", "municipio_ibge_codigo": "2805406"}, "geometry": {"type": "Polygon", "coordinates": [[[-37.6662, -10.0157], [-37.665, -9.9995], [-37.6524, -9.9945], [-37.6412, -9.979], [-37.6279, -9.9726], [-37.6196, -9.974], [-37.6076, -9.9685], [-37.509, -9.8182], [-37.466, -9.748], [-37.4731, -9.7464], [-37.5154, -9.7459], [-37.5276, -9.7423], [-37.5724, -9.7386], [-37.5818, -9.7341], [-37.5971, -9.7213], [-37.6216, -9.708], [-37.6335, -9.7001], [-37.6373, -9.6931], [-37.6541, -9.6863], [-37.6596, -9.6782], [-37.6659, -9.6659], [-37.8311, -9.7033], [-37.8348, -9.7101], [-37.8348, -9.7213], [-37.844, -9.7492], [-37.8409, -9.7589], [-37.844, -9.7752], [-37.8531, -9.7777], [-37.8548, -9.7934], [-37.8587, -9.8017], [-37.863, -9.8241], [-37.8696, -9.8409], [-37.8667, -9.8446], [-37.8712, -9.8677], [-37.8705, -9.8898], [-37.8655, -9.8962], [-37.8771, -9.9085], [-37.8896, -9.9143], [-37.896, -9.912], [-37.9021, -9.9189], [-37.907, -9.9294], [-37.9134, -9.9331], [-37.909, -9.94], [-37.8971, -9.9417], [-37.8961, -9.9543], [-37.8784, -9.9716], [-37.8761, -9.977], [-37.8626, -9.9886], [-37.8521, -9.9905], [-37.8331, -10.0192], [-37.8247, -10.0238], [-37.826, -10.0365], [-37.8136, -10.0323], [-37.7908, -10.0329], [-37.7806, -10.0333], [-37.7738, -10.0298], [-37.7646, -10.031], [-37.7553, -10.0258], [-37.7466, -10.027], [-37.731, -10.024], [-37.724, -10.0284], [-37.7021, -10.0138], [-37.6981, -10.0194], [-37.6876, -10.0231], [-37.6846, -10.0284], [-37.6738, -10.0263], [-37.6662, -10.0157]]]}}, {"type": "Feature", "properties": {"nome": "P. Folha", "municipio": "P. Folha", "fonte": "IBGE (malha territorial oficial)", "municipio_ibge_nome": "Porto da Folha", "municipio_ibge_codigo": "2805604"}, "geometry": {"type": "Polygon", "coordinates": [[[-37.2263, -9.8977], [-37.2347, -9.8976], [-37.2455, -9.8918], [-37.2492, -9.8854], [-37.2495, -9.8752], [-37.2567, -9.8634], [-37.2609, -9.8507], [-37.2712, -9.8441], [-37.2852, -9.8306], [-37.2965, -9.8306], [-37.3188, -9.822], [-37.3259, -9.8169], [-37.3466, -9.7912], [-37.363, -9.7873], [-37.3816, -9.7805], [-37.3936, -9.7792], [-37.408, -9.7641], [-37.4126, -9.7616], [-37.4249, -9.7616], [-37.4356, -9.7558], [-37.466, -9.748], [-37.509, -9.8182], [-37.6076, -9.9685], [-37.6196, -9.974], [-37.6279, -9.9726], [-37.6412, -9.979], [-37.6524, -9.9945], [-37.665, -9.9995], [-37.6662, -10.0157], [-37.6555, -10.0133], [-37.6427, -10.0213], [-37.6146, -10.0265], [-37.609, -10.0196], [-37.5953, -10.0161], [-37.5862, -10.0099], [-37.5865, -9.9992], [-37.5632, -9.999], [-37.4701, -10.0225], [-37.4201, -10.0622], [-37.4094, -10.0514], [-37.401, -10.0515], [-37.3824, -10.038], [-37.3847, -10.0304], [-37.3738, -10.0225], [-37.3703, -10.0071], [-37.354, -10.0156], [-37.3494, -10.0127], [-37.347, -10.0004], [-37.342, -9.9989], [-37.3418, -9.9901], [-37.3368, -9.9864], [-37.3319, -9.9929], [-37.3344, -10.0], [-37.3276, -10.0093], [-37.3163, -10.0088], [-37.3143, -10.0008], [-37.3056, -9.9997], [-37.3006, -10.0035], [-37.2958, -10.0156], [-37.2857, -10.0091], [-37.2871, -9.9938], [-37.281, -9.9876], [-37.2648, -9.9925], [-37.2723, -9.9695], [-37.2707, -9.9621], [-37.2608, -9.9644], [-37.2577, -9.9587], [-37.2341, -9.9585], [-37.2313, -9.9127], [-37.2263, -9.8977]]]}}]}