{"type": "FeatureCollection", "features": [{"type": "Feature", "properties": {"nome": "Maruim", "municipio": "Maruim", "fonte": "IBGE (malha territorial oficial)", "municipio_ibge_nome": "Maruim", "municipio_ibge_codigo": "2804003"}, "geometry": {"type": "Polygon", "coordinates": [[[-37.0907, -10.6551], [-37.1155, -10.6849], [-37.1216, -10.7027], [-37.1426, -10.7005], [-37.1468, -10.7199], [-37.1541, -10.7263], [-37.1511, -10.7385], [-37.158, -10.7419], [-37.1614, -10.7514], [-37.1529, -10.7675], [-37.1473, -10.7699], [-37.1382, -10.7655], [-37.1314, -10.7703], [-37.1344, -10.7766], [-37.1272, -10.7858], [-37.1224, -10.7863], [-37.1085, -10.7765], [-37.0987, -10.7755], [-37.0882, -10.7832], [-37.0729, -10.7764], [-37.0678, -10.7682], [-37.0706, -10.7603], [-37.0686, -10.7478], [-37.0618, -10.7145], [-37.0512, -10.7032], [-37.0586, -10.6911], [-37.078, -10.6838], [-37.0888, -10.682], [-37.0917, -10.6719], [-37.0907, -10.6551]]]}}, {"type": "Feature", "properties": {"nome": "Carmopolis", "municipio": "Carmopolis", "fonte": "IBGE (malha territorial oficial)", "municipio_ibge_nome": "Carmópolis", "municipio_ibge_codigo": "2801504"}, "geometry": {"type": "Polygon", "coordinates": [[[-37.0113, -10.6758], [-36.9746, -10.6852], [-36.9166, -10.6856], [-36.9202, -10.701], [-36.912, -10.7012], [-36.8998, -10.6926], [-36.9026, -10.6851], [-36.9155, -10.6764], [-36.9235, -10.6769], [-36.929, -10.6706], [-36.9326, -10.6544], [-36.9485, -10.6505], [-36.9562, -10.6522], [-36.9638, -10.6466], [-36.9689, -10.631], [-36.9919, -10.6316], [-37.0113, -10.6413], [-37.0101, -10.6616], [-37.0113, -10.6758]]]}}, {"type": "Feature", "properties": {"nome": "Divina", "municipio": "Divina", "fonte": "IBGE (malha territorial oficial)", "municipio_ibge_nome": "Divina Pastora", "municipio_ibge_codigo": "2802007"}, "geometry": {"type": "Polygon", "coordinates": [[[-37.2041, -10.6242], [-37.1946, -10.6254], [-37.1868, -10.6345], [-37.1793, -10.653], [-37.1895, -10.6574], [-37.1927, -10.6662], [-37.1904, -10.6719], [-37.199, -10.6772], [-37.1988, -10.6892], [-37.1958, -10.6913], [-37.2059, -10.7042], [-37.2017, -10.7115], [-37.2033, -10.7204], [-37.1918, -10.7283], [-37.1791, -10.7175], [-37.1666, -10.7274], [-37.161, -10.7347], [-37.1638, -10.746], [-37.1614, -10.7514], [-37.158, -10.7419], [-37.1511, -10.7385], [-37.1541, -10.7263], [-37.1468, -10.7199], [-37.1426, -10.7005], [-37.1216, -10.7027], [-37.1155, -10.6849], [-37.0907, -10.6551], [-37.0885, -10.6495], [-37.0919, -10.6408], [-37.1125, -10.6472], [-37.1255, -10.6479], [-37.1341, -10.6512], [-37.1413, -10.6457], [-37.146, -10.6364], [-37.1434, -10.6252], [-37.1505, -10.6208], [-37.1779, -10.6255], [-37.2073, -10.6076], [-37.2024, -10.6158], [-37.2041, -10.6242]]]}}, {"type": "Feature", "properties": {"nome": "General", "municipio": "General", "fonte": "IBGE (malha territorial oficial)", "municipio_ibge_nome": "General Maynard", "municipio_ibge_codigo": "2802502"}, "geometry": {"type": "Polygon", "coordinates": [[[-36.9166, -10.6856], [-36.9746, -10.6852], [-37.0113, -10.6758], [-37.0164, -10.6848], [-37.0057, -10.6965], [-36.9888, -10.7037], [-36.9807, -10.7008], [-36.9691, -10.7056], [-36.9613, -10.704], [-36.9499, -10.7127], [-36.935, -10.6955], [-36.9166, -10.6856]]]}}, {"type": "Feature", "properties": {"nome": "Japaratuba", "municipio": "Japaratuba", "fonte": "IBGE (malha territorial oficial)", "municipio_ibge_nome": "Japaratuba", "municipio_ibge_codigo": "2803302"}, "geometry": {"type": "Polygon", "coordinates": [[[-37.0113, -10.6413], [-36.9919, -10.6316], [-36.9689, -10.631], [-36.9638, -10.6466], [-36.9562, -10.6522], [-36.9485, -10.6505], [-36.9326, -10.6544], [-36.929, -10.6706], [-36.9235, -10.6769], [-36.9032, -10.6622], [-36.8941, -10.661], [-36.8401, -10.6194], [-36.7813, -10.5749], [-36.8011, -10.576], [-36.8085, -10.5744], [-36.8096, -10.5486], [-36.8135, -10.5435], [-36.8319, -10.5314], [-36.8309, -10.5247], [-36.8361, -10.5195], [-36.8375, -10.5078], [-36.846, -10.4964], [-36.8563, -10.4985], [-36.862, -10.4945], [-36.8692, -10.4818], [-36.8683, -10.4674], [-36.8698, -10.4541], [-36.875, -10.4444], [-36.8752, -10.4376], [-36.8679, -10.4306], [-36.857, -10.4252], [-36.8602, -10.4171], [-36.8686, -10.4186], [-36.8771, -10.4116], [-36.8782, -10.404], [-36.8863, -10.396], [-36.903, -10.4026], [-36.9059, -10.4169], [-36.918, -10.4209], [-36.925, -10.4266], [-36.9323, -10.4263], [-36.935, -10.4495], [-36.9564, -10.5237], [-36.9778, -10.5302], [-36.9755, -10.5416], [-37.0113, -10.6413]]]}}, {"type": "Feature", "properties": {"nome": "Laranjeiras", "municipio": "Laranjeiras", "fonte": "IBGE (malha territorial oficial)", "municipio_ibge_nome": "Laranjeiras", "municipio_ibge_codigo": "2803609"}, "geometry": {"type": "Polygon", "coordinates": [[[-37.3177, -10.8316], [-37.2436, -10.8339], [-37.2299, -10.8367], [-37.2149, -10.8481], [-37.2077, -10.8467], [-37.1812, -10.855], [-37.1757, -10.8447], [-37.1605, -10.8364], [-37.1563, -10.8319], [-37.1477, -10.835], [-37.1179, -10.832], [-37.1088, -10.8268], [-37.1015, -10.8181], [-37.0911, -10.8234], [-37.0843, -10.8219], [-37.0649, -10.823], [-37.0753, -10.8075], [-37.0873, -10.7984], [-37.0882, -10.7832], [-37.0987, -10.7755], [-37.1085, -10.7765], [-37.1224, -10.7863], [-37.1272, -10.7858], [-37.1344, -10.7766], [-37.1314, -10.7703], [-37.1382, -10.7655], [-37.1473, -10.7699], [-37.1529, -10.7675], [-37.1614, -10.7514], [-37.216, -10.7653], [-37.2251, -10.7596], [-37.2358, -10.7683], [-37.2445, -10.7784], [-37.2732, -10.7987], [-37.3177, -10.8316]]]}}, {"type": "Feature", "properties": {"nome": "Pirambu", "municipio": "Pirambu", "fonte": "IBGE (malha territorial oficial)", "municipio_ibge_nome": "Pirambu", "municipio_ibge_codigo": "2805307"}, "geometry": {"type": "Polygon", "coordinates": [[[-36.8728, -10.7412], [-36.8527, -10.7442], [-36.8279, -10.7215], [-36.7977, -10.6975], [-36.7844, -10.6882], [-36.7347, -10.6581], [-36.7178, -10.6504], [-36.6875, -10.6387], [-36.6729, -10.6308], [-36.6737, -10.6288], [-36.7501, -10.5949], [-36.7575, -10.5902], [-36.764, -10.5804], [-36.7813, -10.5749], [-36.8401, -10.6194], [-36.8941, -10.661], [-36.9032, -10.6622], [-36.9235, -10.6769], [-36.9155, -10.6764], [-36.9026, -10.6851], [-36.8998, -10.6926], [-36.9012, -10.6975], [-36.8954, -10.7055], [-36.8855, -10.7017], [-36.8834, -10.6969], [-36.8704, -10.7074], [-36.8716, -10.7226], [-36.8686, -10.7365], [-36.8728, -10.7412]]]}}, {"type": "Feature", "properties": {"nome": "Riachuelo", "municipio": "Riachuelo", "fonte": "IBGE (malha territorial oficial)", "municipio_ibge_nome": "Riachuelo", "municipio_ibge_codigo": "2805901"}, "geometry": {"type": "Polygon", "coordinates": [[[-37.1614, -10.7514], [-37.1638, -10.746], [-37.161, -10.7347], [-37.1666, -10.7274], [-37.1791, -10.7175], [-37.1918, -10.7283], [-37.2033, -10.7204], [-37.2017, -10.7115], [-37.2059, -10.7042], [-37.1958, -10.6913], [-37.1988, -10.6892], [-37.199, -10.6772], [-37.2304, -10.6743], [-37.2272, -10.6836], [-37.2303, -10.6947], [-37.2291, -10.7018], [-37.2357, -10.7074], [-37.2589, -10.7017], [-37.2692, -10.7152], [-37.2754, -10.711], [-37.2814, -10.7202], [-37.2781, -10.7256], [-37.2831, -10.7317], [-37.2789, -10.7414], [-37.2706, -10.7465], [-37.2725, -10.7528], [-37.2445, -10.7784], [-37.2358, -10.7683], [-37.2251, -10.7596], [-37.216, -10.7653], [-37.1614, -10.7514]]]}}, {"type": "Feature", "properties": {"nome": "Rosário", "municipio": "Rosário", "fonte": "IBGE (malha territorial oficial)", "municipio_ibge_nome": "Rosário do Catete", "municipio_ibge_codigo": "2806107"}, "geometry": {"type": "Polygon", "coordinates": [[[-37.0718, -10.6151], [-37.0759, -10.6322], [-37.0919, -10.6408], [-37.0885, -10.6495], [-37.0907, -10.6551], [-37.0917, -10.6719], [-37.0888, -10.682], [-37.078, -10.6838], [-37.0586, -10.6911], [-37.0512, -10.7032], [-37.0618, -10.7145], [-37.0686, -10.7478], [-37.0594, -10.7418], [-37.0266, -10.7284], [-37.0161, -10.7217], [-37.0007, -10.7321], [-36.9941, -10.7304], [-36.9838, -10.7364], [-36.9678, -10.7304], [-36.9499, -10.7127], [-36.9613, -10.704], [-36.9691, -10.7056], [-36.9807, -10.7008], [-36.9888, -10.7037], [-37.0057, -10.6965], [-37.0164, -10.6848], [-37.0113, -10.6758], [-37.0101, -10.6616], [-37.0113, -10.6413], [-37.0362, -10.6256], [-37.054, -10.6215], [-37.0718, -10.6151]]]}}, {"type": "Feature", "properties": {"nome": "Santa Rosa", "municipio": "Santa Rosa", "fonte": "IBGE (malha territorial oficial)", "municipio_ibge_nome": "Santa Rosa de Lima", "municipio_ibge_codigo": "2806503"}, "geometry": {"type": "Polygon", "coordinates": [[[-37.2304, -10.6743], [-37.199, -10.6772], [-37.1904, -10.6719], [-37.1927, -10.6662], [-37.1895, -10.6574], [-37.1793, -10.653], [-37.1868, -10.6345], [-37.1946, -10.6254], [-37.2041, -10.6242], [-37.2171, -10.6118], [-37.2305, -10.6037], [-37.2357, -10.6037], [-37.248, -10.5944], [-37.2537, -10.5958], [-37.2646, -10.5868], [-37.2785, -10.5866], [-37.2859, -10.593], [-37.2932, -10.5945], [-37.2964, -10.601], [-37.2955, -10.6109], [-37.2824, -10.617], [-37.2782, -10.6331], [-37.2692, -10.6337], [-37.2589, -10.6493], [-37.2473, -10.6484], [-37.244, -10.6533], [-37.2459, -10.6612], [-37.2387, -10.6637], [-37.2304, -10.6743]]]}}, {"type": "Feature", "properties": {"nome": "Santo Amaro", "municipio": "Santo Amaro", "fonte": "IBGE (malha territorial oficial)", "municipio_ibge_nome": "Santo Amaro das Brotas", "municipio_ibge_codigo": "2806602"}, "geometry": {"type": "Polygon", "coordinates": [[[-37.0649, -10.823], [-37.0458, -10.8259], [-37.031, -10.84], [-37.0284, -10.8474], [-37.0339, -10.8701], [-37.0398, -10.8841], [-37.028, -10.8852], [-37.0154, -10.8732], [-37.0092, -10.8649], [-36.9935, -10.8568], [-36.9921, -10.8522], [-36.9816, -10.8465], [-36.9813, -10.8356], [-36.9774, -10.8321], [-36.9684, -10.8329], [-36.9641, -10.8187], [-36.9593, -10.8171], [-36.9592, -10.8073], [-36.9473, -10.7979], [-36.9384, -10.7953], [-36.9375, -10.7881], [-36.9279, -10.7899], [-36.9103, -10.7773], [-36.8994, -10.7726], [-36.8871, -10.7562], [-36.8822, -10.7444], [-36.8728, -10.7412], [-36.8686, -10.7365], [-36.8716, -10.7226], [-36.8704, -10.7074], [-36.8834, -10.6969], [-36.8855, -10.7017], [-36.8954, -10.7055], [-36.9012, -10.6975], [-36.8998, -10.6926], [-36.912, -10.7012], [-36.9202, -10.701], [-36.9166, -10.6856], [-36.935, -10.6955], [-36.9499, -10.7127], [-36.9678, -10.7304], [-36.9838, -10.7364], [-36.9941, -10.7304], [-37.0007, -10.7321], [-37.0161, -10.7217], [-37.0266, -10.7284], [-37.0594, -10.7418], [-37.0686, -10.7478], [-37.0706, -10.7603], [-37.0678, -10.7682], [-37.0729, -10.7764], [-37.0882, -10.7832], [-37.0873, -10.7984], [-37.0753, -10.8075], [-37.0649, -10.823]]]}}, {"type": "Feature", "properties": {"nome": "Siriri", "municipio": "Siriri", "fonte": "IBGE (malha territorial oficial)", "municipio_ibge_nome": "Siriri", "municipio_ibge_codigo": "2807204"}, "geometry": {"type": "Polygon", "coordinates": [[[-37.0919, -10.6408], [-37.0759, -10.6322], [-37.0718, -10.6151], [-37.0643, -10.6038], [-37.0653, -10.5928], [-37.077, -10.5842], [-37.0685, -10.573], [-37.0728, -10.5668], [-37.0732, -10.5577], [-37.0661, -10.5409], [-37.065, -10.5305], [-37.0804, -10.5274], [-37.1024, -10.5306], [-37.1015, -10.5114], [-37.1045, -10.5029], [-37.1131, -10.4935], [-37.1149, -10.4817], [-37.1225, -10.4758], [-37.1387, -10.4701], [-37.1397, -10.507], [-37.1566, -10.529], [-37.1808, -10.5628], [-37.1708, -10.5706], [-37.1758, -10.5797], [-37.1868, -10.5857], [-37.2056, -10.6026], [-37.2073, -10.6076], [-37.1779, -10.6255], [-37.1505, -10.6208], [-37.1434, -10.6252], [-37.146, -10.6364], [-37.1413, -10.6457], [-37.1341, -10.6512], [-37.1255, -10.6479], [-37.1125, -10.6472], [-37.0919, -10.6408]]]}}]}