{"type": "FeatureCollection", "features": [{"type": "Feature", "properties": {"nome": "Propriá", "municipio": "Propriá", "fonte": "IBGE (malha territorial oficial)", "municipio_ibge_nome": "Propriá", "municipio_ibge_codigo": "2805703"}, "geometry": {"type": "Polygon", "coordinates": [[[-36.8677, -10.2282], [-36.8485, -10.2403], [-36.8444, -10.2619], [-36.8414, -10.2688], [-36.8413, -10.2793], [-36.8368, -10.2824], [-36.8362, -10.2913], [-36.8186, -10.298], [-36.8007, -10.2946], [-36.7955, -10.2828], [-36.795, -10.2748], [-36.7868, -10.2626], [-36.7761, -10.2649], [-36.7595, -10.2546], [-36.7576, -10.2622], [-36.7487, -10.2616], [-36.7325, -10.2792], [-36.7062, -10.2822], [-36.7016, -10.2704], [-36.7204, -10.2649], [-36.7352, -10.2419], [-36.7489, -10.2282], [-36.7583, -10.2249], [-36.7695, -10.2279], [-36.7915, -10.2272], [-36.8014, -10.2131], [-36.8145, -10.2152], [-36.8263, -10.2112], [-36.8315, -10.2062], [-36.8342, -10.1972], [-36.8449, -10.1888], [-36.8486, -10.1891], [-36.8539, -10.1779], [-36.8576, -10.1765], [-36.8672, -10.2058], [-36.8677, -10.2282]]]}}, {"type": "Feature", "properties": {"nome": "Amparo S", "municipio": "Amparo S", "fonte": "IBGE (malha territorial oficial)", "municipio_ibge_nome": "Amparo do São Francisco", "municipio_ibge_codigo": "2800100"}, "geometry": {"type": "Polygon", "coordinates": [[[-36.918, -10.1247], [-36.9231, -10.1267], [-36.9347, -10.1207], [-36.9399, -10.1553], [-36.9434, -10.2275], [-36.9053, -10.1762], [-36.8826, -10.1475], [-36.8907, -10.1463], [-36.8944, -10.1395], [-36.9114, -10.1388], [-36.918, -10.1247]]]}}, {"type": "Feature", "properties": {"nome": "Aquidabã", "municipio": "Aquidabã", "fonte": "IBGE (malha territorial oficial)", "municipio_ibge_nome": "Aquidabã", "municipio_ibge_codigo": "2800209"}, "geometry": {"type": "Polygon", "coordinates": [[[-36.9434, -10.2275], [-36.9612, -10.2357], [-36.9716, -10.2045], [-36.9835, -10.1956], [-36.9948, -10.1776], [-37.0169, -10.191], [-37.0574, -10.1811], [-37.1504, -10.1631], [-37.1505, -10.1632], [-37.1547, -10.1844], [-37.1462, -10.1914], [-37.1374, -10.1937], [-37.1365, -10.2003], [-37.1432, -10.2053], [-37.1484, -10.217], [-37.151, -10.2358], [-37.149, -10.2414], [-37.1407, -10.2463], [-37.1433, -10.2567], [-37.1395, -10.2593], [-37.1387, -10.2789], [-37.1508, -10.2889], [-37.1474, -10.3017], [-37.1551, -10.3063], [-37.1502, -10.3213], [-37.1553, -10.3277], [-37.1642, -10.3311], [-37.1641, -10.3398], [-37.1547, -10.3449], [-37.1531, -10.3672], [-37.147, -10.3664], [-37.135, -10.3582], [-37.125, -10.375], [-37.1161, -10.3685], [-37.1115, -10.3719], [-37.1016, -10.3679], [-37.0967, -10.3567], [-37.0899, -10.3576], [-37.085, -10.3461], [-37.0776, -10.3389], [-37.0626, -10.3291], [-37.0521, -10.3423], [-37.0382, -10.3266], [-37.0181, -10.3321], [-37.0093, -10.3023], [-36.9561, -10.29], [-36.9337, -10.2761], [-36.9524, -10.2665], [-36.929, -10.2228], [-36.9434, -10.2275]]]}}, {"type": "Feature", "properties": {"nome": "Telha", "municipio": "Telha", "fonte": "IBGE (malha territorial oficial)", "municipio_ibge_nome": "Telha", "municipio_ibge_codigo": "2807303"}, "geometry": {"type": "Polygon", "coordinates": [[[-36.929, -10.2228], [-36.9018, -10.2258], [-36.8677, -10.2282], [-36.8672, -10.2058], [-36.8576, -10.1765], [-36.8539, -10.1779], [-36.8486, -10.1891], [-36.8449, -10.1888], [-36.8504, -10.1784], [-36.8557, -10.1649], [-36.8663, -10.1561], [-36.8714, -10.1465], [-36.8826, -10.1475], [-36.9053, -10.1762], [-36.9434, -10.2275], [-36.929, -10.2228]]]}}, {"type": "Feature", "properties": {"nome": "Canhoba", "municipio": "Canhoba", "fonte": "IBGE (malha territorial oficial)", "municipio_ibge_nome": "Canhoba", "municipio_ibge_codigo": "2801108"}, "geometry": {"type": "Polygon", "coordinates": [[[-37.1504, -10.1631], [-37.0574, -10.1811], [-37.0169, -10.191], [-36.9948, -10.1776], [-36.9835, -10.1956], [-36.9716, -10.2045], [-36.9612, -10.2357], [-36.9434, -10.2275], [-36.9399, -10.1553], [-36.9347, -10.1207], [-36.9231, -10.1267], [-36.918, -10.1247], [-36.9253, -10.1158], [-36.931, -10.0981], [-36.9457, -10.0874], [-36.9474, -10.0747], [-36.9484, -10.0696], [-36.9909, -10.0851], [-37.0082, -10.1041], [-37.0316, -10.124], [-37.0371, -10.1356], [-37.0451, -10.1333], [-37.045, -10.1252], [-37.0555, -10.1266], [-37.0568, -10.1312], [-37.0665, -10.1364], [-37.0903, -10.1448], [-37.1504, -10.1631]]]}}, {"type": "Feature", "properties": {"nome": "Cedro", "municipio": "Cedro", "fonte": "IBGE (malha territorial oficial)", "municipio_ibge_nome": "Cedro de São João", "municipio_ibge_codigo": "2801603"}, "geometry": {"type": "Polygon", "coordinates": [[[-36.9027, -10.3242], [-36.8916, -10.3111], [-36.8862, -10.3008], [-36.8743, -10.2971], [-36.8702, -10.2901], [-36.8518, -10.2744], [-36.8444, -10.2619], [-36.8485, -10.2403], [-36.8677, -10.2282], [-36.9018, -10.2258], [-36.929, -10.2228], [-36.9524, -10.2665], [-36.9337, -10.2761], [-36.9359, -10.3067], [-36.9027, -10.3242]]]}}, {"type": "Feature", "properties": {"nome": "Ilha", "municipio": "Ilha", "fonte": "IBGE (malha territorial oficial)", "municipio_ibge_nome": "Ilha das Flores", "municipio_ibge_codigo": "2802700"}, "geometry": {"type": "Polygon", "coordinates": [[[-36.4894, -10.4245], [-36.5019, -10.4311], [-36.5351, -10.4303], [-36.5536, -10.424], [-36.562, -10.4157], [-36.566, -10.4323], [-36.5822, -10.4377], [-36.5856, -10.45], [-36.5954, -10.449], [-36.5943, -10.4602], [-36.6, -10.4778], [-36.5919, -10.4821], [-36.5992, -10.4906], [-36.6001, -10.4968], [-36.5854, -10.4997], [-36.5831, -10.4992], [-36.5285, -10.4664], [-36.5147, -10.4484], [-36.5093, -10.4448], [-36.4841, -10.4372], [-36.4894, -10.4245]]]}}, {"type": "Feature", "properties": {"nome": "Japoatã", "municipio": "Japoatã", "fonte": "IBGE (malha territorial oficial)", "municipio_ibge_nome": "Japoatã", "municipio_ibge_codigo": "2803401"}, "geometry": {"type": "Polygon", "coordinates": [[[-36.7575, -10.5902], [-36.7478, -10.5767], [-36.7475, -10.5655], [-36.7534, -10.5514], [-36.7514, -10.5414], [-36.7437, -10.5342], [-36.7324, -10.5322], [-36.7206, -10.5271], [-36.7244, -10.5174], [-36.7173, -10.5143], [-36.7192, -10.5003], [-36.7163, -10.4923], [-36.7206, -10.4876], [-36.7121, -10.4482], [-36.7156, -10.4465], [-36.7041, -10.4257], [-36.7025, -10.4172], [-36.7064, -10.4073], [-36.7053, -10.4006], [-36.7169, -10.3848], [-36.7188, -10.3777], [-36.7248, -10.3751], [-36.7336, -10.3634], [-36.7327, -10.3584], [-36.7375, -10.341], [-36.7356, -10.3291], [-36.7394, -10.3213], [-36.749, -10.3145], [-36.76, -10.3187], [-36.7773, -10.3092], [-36.7878, -10.3006], [-36.7955, -10.2828], [-36.8007, -10.2946], [-36.8186, -10.298], [-36.8221, -10.3006], [-36.8127, -10.3226], [-36.8126, -10.3267], [-36.8291, -10.3303], [-36.838, -10.335], [-36.8452, -10.3423], [-36.8456, -10.3552], [-36.8416, -10.3579], [-36.8459, -10.3704], [-36.8606, -10.3833], [-36.8916, -10.386], [-36.8941, -10.3926], [-36.903, -10.4026], [-36.8863, -10.396], [-36.8782, -10.404], [-36.8771, -10.4116], [-36.8686, -10.4186], [-36.8602, -10.4171], [-36.857, -10.4252], [-36.8679, -10.4306], [-36.8752, -10.4376], [-36.875, -10.4444], [-36.8698, -10.4541], [-36.8683, -10.4674], [-36.8692, -10.4818], [-36.862, -10.4945], [-36.8563, -10.4985], [-36.846, -10.4964], [-36.8375, -10.5078], [-36.8361, -10.5195], [-36.8309, -10.5247], [-36.8319, -10.5314], [-36.8135, -10.5435], [-36.8096, -10.5486], [-36.8085, -10.5744], [-36.8011, -10.576], [-36.7813, -10.5749], [-36.764, -10.5804], [-36.7575, -10.5902]]]}}, {"type": "Feature", "properties": {"nome": "M. dos Bois", "municipio": "M. dos Bois", "fonte": "IBGE (malha territorial oficial)", "municipio_ibge_nome": "Malhada dos Bois", "municipio_ibge_codigo": "2803807"}, "geometry": {"type": "Polygon", "coordinates": [[[-36.9158, -10.3934], [-36.9126, -10.3695], [-36.9007, -10.3501], [-36.9027, -10.3242], [-36.9359, -10.3067], [-36.9337, -10.2761], [-36.9561, -10.29], [-37.0093, -10.3023], [-36.9693, -10.3374], [-36.9158, -10.3934]]]}}, {"type": "Feature", "properties": {"nome": "Muribeca", "municipio": "Muribeca", "fonte": "IBGE (malha territorial oficial)", "municipio_ibge_nome": "Muribeca", "municipio_ibge_codigo": "2804300"}, "geometry": {"type": "Polygon", "coordinates": [[[-37.0181, -10.3321], [-37.0013, -10.328], [-36.9953, -10.3584], [-36.9794, -10.3783], [-36.9837, -10.3881], [-36.9826, -10.4046], [-36.978, -10.408], [-36.9737, -10.4192], [-36.9675, -10.4242], [-36.9613, -10.4423], [-36.9491, -10.4424], [-36.935, -10.4495], [-36.9323, -10.4263], [-36.925, -10.4266], [-36.918, -10.4209], [-36.9059, -10.4169], [-36.903, -10.4026], [-36.9158, -10.3934], [-36.9693, -10.3374], [-37.0093, -10.3023], [-37.0181, -10.3321]]]}}, {"type": "Feature", "properties": {"nome": "Neópolis", "municipio": "Neópolis", "fonte": "IBGE (malha territorial oficial)", "municipio_ibge_nome": "Neópolis", "municipio_ibge_codigo": "2804409"}, "geometry": {"type": "Polygon", "coordinates": [[[-36.7053, -10.4006], [-36.7019, -10.4057], [-36.6554, -10.4014], [-36.6478, -10.3999], [-36.6127, -10.4116], [-36.5988, -10.4151], [-36.6077, -10.4206], [-36.6001, -10.4968], [-36.5992, -10.4906], [-36.5919, -10.4821], [-36.6, -10.4778], [-36.5943, -10.4602], [-36.5954, -10.449], [-36.5856, -10.45], [-36.5822, -10.4377], [-36.566, -10.4323], [-36.562, -10.4157], [-36.56, -10.4066], [-36.5567, -10.3771], [-36.5576, -10.3701], [-36.5645, -10.3583], [-36.5639, -10.343], [-36.5718, -10.3161], [-36.5873, -10.3013], [-36.603, -10.3068], [-36.6536, -10.3211], [-36.6745, -10.2837], [-36.6837, -10.2708], [-36.7016, -10.2704], [-36.7062, -10.2822], [-36.7325, -10.2792], [-36.7487, -10.2616], [-36.7576, -10.2622], [-36.7595, -10.2546], [-36.7761, -10.2649], [-36.7868, -10.2626], [-36.795, -10.2748], [-36.7955, -10.2828], [-36.7878, -10.3006], [-36.7773, -10.3092], [-36.76, -10.3187], [-36.749, -10.3145], [-36.7394, -10.3213], [-36.7356, -10.3291], [-36.7375, -10.341], [-36.7327, -10.3584], [-36.7336, -10.3634], [-36.7248, -10.3751], [-36.7188, -10.3777], [-36.7169, -10.3848], [-36.7053, -10.4006]]]}}, {"type": "Feature", "properties": {"nome": "Pacatuba", "municipio": "Pacatuba", "fonte": "IBGE (malha territorial oficial)", "municipio_ibge_nome": "Pacatuba", "municipio_ibge_codigo": "2804904"}, "geometry": {"type": "Polygon", "coordinates": [[[-36.7575, -10.5902], [-36.7501, -10.5949], [-36.6737, -10.6288], [-36.6729, -10.6308], [-36.6392, -10.6064], [-36.6127, -10.5884], [-36.5848, -10.5725], [-36.5762, -10.5718], [-36.5273, -10.5513], [-36.4862, -10.5364], [-36.4846, -10.5286], [-36.4994, -10.513], [-36.5854, -10.4997], [-36.6001, -10.4968], [-36.6077, -10.4206], [-36.5988, -10.4151], [-36.6127, -10.4116], [-36.6478, -10.3999], [-36.6554, -10.4014], [-36.7019, -10.4057], [-36.7053, -10.4006], [-36.7064, -10.4073], [-36.7025, -10.4172], [-36.7041, -10.4257], [-36.7156, -10.4465], [-36.7121, -10.4482], [-36.7206, -10.4876], [-36.7163, -10.4923], [-36.7192, -10.5003], [-36.7173, -10.5143], [-36.7244, -10.5174], [-36.7206, -10.5271], [-36.7324, -10.5322], [-36.7437, -10.5342], [-36.7514, -10.5414], [-36.7534, -10.5514], [-36.7475, -10.5655], [-36.7478, -10.5767], [-36.7575, -10.5902]]]}}, {"type": "Feature", "properties": {"nome": "Santana", "municipio": "Santana", "fonte": "IBGE (malha territorial oficial)", "municipio_ibge_nome": "Santana do São Francisco", "municipio_ibge_codigo": "2806404"}, "geometry": {"type": "Polygon", "coordinates": [[[-36.5873, -10.3013], [-36.6005, -10.2901], [-36.6106, -10.2703], [-36.6215, -10.2564], [-36.6319, -10.2522], [-36.6386, -10.252], [-36.6577, -10.2679], [-36.6699, -10.2678], [-36.6837, -10.2708], [-36.6745, -10.2837], [-36.6536, -10.3211], [-36.603, -10.3068], [-36.5873, -10.3013]]]}}, {"type": "Feature", "properties": {"nome": "São Francisco", "municipio": "São Francisco", "fonte": "IBGE (malha territorial oficial)", "municipio_ibge_nome": "São Francisco", "municipio_ibge_codigo": "2806909"}, "geometry": {"type": "Polygon", "coordinates": [[[-36.9027, -10.3242], [-36.9007, -10.3501], [-36.9126, -10.3695], [-36.9158, -10.3934], [-36.903, -10.4026], [-36.8941, -10.3926], [-36.8916, -10.386], [-36.8606, -10.3833], [-36.8459, -10.3704], [-36.8416, -10.3579], [-36.8456, -10.3552], [-36.8452, -10.3423], [-36.838, -10.335], [-36.8291, -10.3303], [-36.8126, -10.3267], [-36.8127, -10.3226], [-36.8221, -10.3006], [-36.8186, -10.298], [-36.8362, -10.2913], [-36.8368, -10.2824], [-36.8413, -10.2793], [-36.8414, -10.2688], [-36.8444, -10.2619], [-36.8518, -10.2744], [-36.8702, -10.2901], [-36.8743, -10.2971], [-36.8862, -10.3008], [-36.8916, -10.3111], [-36.9027, -10.3242]]]}}, {"type": "Feature", "properties": {"nome": "Brejo", "municipio": "Brejo", "fonte": "IBGE (malha territorial oficial)", "municipio_ibge_nome": "Brejo Grande", "municipio_ibge_codigo": "2800704"}, "geometry": {"type": "Polygon", "coordinates": [[[-36.5854, -10.4997], [-36.4994, -10.513], [-36.4846, -10.5286], [-36.4862, -10.5364], [-36.4368, -10.5171], [-36.4088, -10.5127], [-36.3959, -10.4969], [-36.4036, -10.487], [-36.422, -10.4429], [-36.4307, -10.43], [-36.4515, -10.4137], [-36.4631, -10.4085], [-36.4869, -10.4232], [-36.4894, -10.4245], [-36.4841, -10.4372], [-36.5093, -10.4448], [-36.5147, -10.4484], [-36.5285, -10.4664], [-36.5831, -10.4992], [-36.5854, -10.4997]]]}}]}