{"type": "FeatureCollection", "features": [{"type": "Feature", "properties": {"nome": "Lagarto", "municipio": "Lagarto", "fonte": "IBGE (malha territorial oficial)", "municipio_ibge_nome": "Lagarto", "municipio_ibge_codigo": "2803500"}, "geometry": {"type": "Polygon", "coordinates": [[[-37.531, -10.9962], [-37.5197, -10.9603], [-37.4556, -10.9775], [-37.5036, -10.9011], [-37.498, -10.9045], [-37.4902, -10.9035], [-37.4855, -10.8987], [-37.4729, -10.8929], [-37.464, -10.8925], [-37.4558, -10.8817], [-37.457, -10.8707], [-37.4622, -10.8666], [-37.4626, -10.8593], [-37.4701, -10.8516], [-37.483, -10.8539], [-37.4793, -10.8407], [-37.4967, -10.8324], [-37.5103, -10.8372], [-37.5119, -10.8436], [-37.5188, -10.8452], [-37.5316, -10.8398], [-37.5358, -10.8415], [-37.5446, -10.8352], [-37.552, -10.8404], [-37.563, -10.8351], [-37.5764, -10.8388], [-37.5946, -10.8266], [-37.6001, -10.8144], [-37.6102, -10.8123], [-37.6143, -10.7963], [-37.6019, -10.7849], [-37.6092, -10.7633], [-37.6202, -10.7487], [-37.6285, -10.7428], [-37.631, -10.7265], [-37.6175, -10.7128], [-37.6208, -10.7068], [-37.6369, -10.7132], [-37.6471, -10.7086], [-37.6422, -10.7008], [-37.6477, -10.6973], [-37.651, -10.7062], [-37.6629, -10.7173], [-37.6682, -10.7086], [-37.6774, -10.7154], [-37.6828, -10.7291], [-37.6927, -10.7346], [-37.7075, -10.7382], [-37.7117, -10.7483], [-37.7095, -10.7546], [-37.7208, -10.7671], [-37.718, -10.7697], [-37.7242, -10.7859], [-37.7328, -10.7974], [-37.7469, -10.8039], [-37.7666, -10.8192], [-37.8049, -10.8392], [-37.8106, -10.862], [-37.8138, -10.8698], [-37.8284, -10.859], [-37.8608, -10.8693], [-37.8758, -10.8639], [-37.8708, -10.8853], [-37.8659, -10.8951], [-37.8748, -10.9184], [-37.8612, -10.9293], [-37.8515, -10.9345], [-37.847, -10.9334], [-37.835, -10.9514], [-37.8396, -10.9552], [-37.84, -10.9696], [-37.8244, -10.9941], [-37.8225, -11.0042], [-37.8095, -11.0102], [-37.79, -11.0122], [-37.7764, -11.0059], [-37.7726, -11.0161], [-37.7598, -11.01], [-37.7417, -11.0106], [-37.74, -11.0026], [-37.746, -10.9968], [-37.7438, -10.9892], [-37.7245, -10.994], [-37.7093, -11.0036], [-37.6923, -11.0263], [-37.6761, -11.0212], [-37.6682, -11.0307], [-37.6555, -11.0386], [-37.6542, -11.0448], [-37.6472, -11.0474], [-37.636, -11.058], [-37.6344, -11.0642], [-37.6224, -11.0675], [-37.5652, -11.0401], [-37.5694, -11.0365], [-37.5685, -11.0255], [-37.531, -10.9962]]]}}, {"type": "Feature", "properties": {"nome": "Salgado", "municipio": "Salgado", "fonte": "IBGE (malha territorial oficial)", "municipio_ibge_nome": "Salgado", "municipio_ibge_codigo": "2806206"}, "geometry": {"type": "Polygon", "coordinates": [[[-37.3888, -11.053], [-37.4044, -11.0349], [-37.4123, -11.0106], [-37.4259, -11.0009], [-37.4258, -10.9893], [-37.4338, -10.9872], [-37.4394, -10.9806], [-37.4556, -10.9775], [-37.5197, -10.9603], [-37.531, -10.9962], [-37.5287, -11.0539], [-37.5381, -11.0926], [-37.5531, -11.1401], [-37.5412, -11.1419], [-37.543, -11.1517], [-37.5532, -11.1588], [-37.5462, -11.1659], [-37.5014, -11.1562], [-37.459, -11.1463], [-37.4373, -11.1268], [-37.4352, -11.1161], [-37.4305, -11.1069], [-37.4387, -11.0954], [-37.4382, -11.087], [-37.3888, -11.053]]]}}, {"type": "Feature", "properties": {"nome": "Poço Verde", "municipio": "Poço Verde", "fonte": "IBGE (malha territorial oficial)", "municipio_ibge_nome": "Poço Verde", "municipio_ibge_codigo": "2805505"}, "geometry": {"type": "Polygon", "coordinates": [[[-37.9702, -10.8248], [-37.9694, -10.8077], [-37.9725, -10.7571], [-37.9768, -10.7579], [-38.0257, -10.7255], [-38.0337, -10.7247], [-38.0301, -10.7136], [-38.0319, -10.708], [-38.0421, -10.7008], [-38.0549, -10.7109], [-38.0678, -10.7157], [-38.0831, -10.7123], [-38.0984, -10.7124], [-38.1336, -10.7196], [-38.1449, -10.718], [-38.1627, -10.7109], [-38.1718, -10.711], [-38.1768, -10.7056], [-38.189, -10.7098], [-38.2049, -10.7106], [-38.2093, -10.7121], [-38.2164, -10.7272], [-38.2132, -10.7311], [-38.2146, -10.7472], [-38.2092, -10.7581], [-38.215, -10.7673], [-38.2176, -10.7792], [-38.2233, -10.787], [-38.233, -10.7915], [-38.2383, -10.7999], [-38.2345, -10.8123], [-38.245, -10.8229], [-38.2393, -10.8276], [-38.2323, -10.8405], [-38.2364, -10.8526], [-38.2364, -10.882], [-38.2285, -10.9002], [-38.2282, -10.9142], [-38.2153, -10.9227], [-38.2103, -10.931], [-38.2072, -10.9235], [-38.1991, -10.9283], [-38.2021, -10.9354], [-38.1806, -10.9428], [-38.1687, -10.9416], [-38.1698, -10.9239], [-38.1626, -10.9186], [-38.1626, -10.9079], [-38.1545, -10.8996], [-38.1403, -10.9006], [-38.1318, -10.894], [-38.124, -10.8825], [-38.1195, -10.8681], [-38.1266, -10.8512], [-38.1197, -10.8451], [-38.118, -10.8368], [-38.1081, -10.8363], [-38.1024, -10.8299], [-38.0933, -10.8286], [-38.0864, -10.8219], [-38.0567, -10.8173], [-38.0461, -10.8185], [-38.0279, -10.8149], [-38.0019, -10.8201], [-37.9835, -10.821], [-37.9702, -10.8248]]]}}, {"type": "Feature", "properties": {"nome": "Simão Dias", "municipio": "Simão Dias", "fonte": "IBGE (malha territorial oficial)", "municipio_ibge_nome": "Simão Dias", "municipio_ibge_codigo": "2807105"}, "geometry": {"type": "Polygon", "coordinates": [[[-37.8063, -10.6005], [-37.81, -10.6124], [-37.8114, -10.6254], [-37.8167, -10.6314], [-37.8075, -10.6394], [-37.8097, -10.6487], [-37.8038, -10.6513], [-37.814, -10.6698], [-37.8095, -10.6737], [-37.8099, -10.6858], [-37.8305, -10.6824], [-37.8463, -10.6944], [-37.8475, -10.6993], [-37.8683, -10.703], [-37.9096, -10.7155], [-37.9241, -10.7349], [-37.9372, -10.7463], [-37.9455, -10.7565], [-37.9529, -10.7501], [-37.9642, -10.7576], [-37.9725, -10.7571], [-37.9694, -10.8077], [-37.9702, -10.8248], [-37.9729, -10.8804], [-37.9391, -10.8898], [-37.9371, -10.881], [-37.8952, -10.8722], [-37.8758, -10.8639], [-37.8608, -10.8693], [-37.8284, -10.859], [-37.8138, -10.8698], [-37.8106, -10.862], [-37.8049, -10.8392], [-37.7666, -10.8192], [-37.7469, -10.8039], [-37.7328, -10.7974], [-37.7242, -10.7859], [-37.718, -10.7697], [-37.7208, -10.7671], [-37.7095, -10.7546], [-37.7117, -10.7483], [-37.7075, -10.7382], [-37.6927, -10.7346], [-37.6828, -10.7291], [-37.6774, -10.7154], [-37.6828, -10.7056], [-37.6739, -10.7026], [-37.6764, -10.6972], [-37.6845, -10.6945], [-37.6829, -10.6876], [-37.7018, -10.6786], [-37.7029, -10.6712], [-37.7098, -10.6719], [-37.7068, -10.6563], [-37.6979, -10.6475], [-37.7066, -10.6331], [-37.7154, -10.6452], [-37.7241, -10.6413], [-37.7223, -10.6337], [-37.7316, -10.6301], [-37.7399, -10.6325], [-37.7498, -10.6212], [-37.7558, -10.6238], [-37.7662, -10.6194], [-37.767, -10.6066], [-37.7756, -10.6017], [-37.7853, -10.6009], [-37.7994, -10.5916], [-37.8063, -10.6005]]]}}]}