{"type": "FeatureCollection", "features": [{"type": "Feature", "properties": {"nome": "São Cristóvão", "municipio": "São Cristóvão", "fonte": "IBGE (malha territorial oficial)", "municipio_ibge_nome": "São Cristóvão", "municipio_ibge_codigo": "2806701"}, "geometry": {"type": "Polygon", "coordinates": [[[-37.1021, -10.9171], [-37.109, -10.9149], [-37.1304, -10.9216], [-37.146, -10.9287], [-37.1533, -10.9225], [-37.1586, -10.9239], [-37.1688, -10.9134], [-37.1739, -10.8996], [-37.1842, -10.8961], [-37.1895, -10.886], [-37.1974, -10.8891], [-37.2068, -10.8747], [-37.2195, -10.8771], [-37.2353, -10.8682], [-37.2443, -10.8652], [-37.2524, -10.855], [-37.2681, -10.8469], [-37.2712, -10.8512], [-37.2978, -10.8479], [-37.308, -10.8324], [-37.3181, -10.8322], [-37.3184, -10.8345], [-37.3304, -10.9305], [-37.3277, -10.9331], [-37.335, -10.9437], [-37.3325, -10.9634], [-37.325, -10.9687], [-37.3282, -10.9749], [-37.3199, -10.9809], [-37.3038, -10.9861], [-37.3007, -11.0053], [-37.302, -11.0087], [-37.2837, -11.0196], [-37.2762, -11.0308], [-37.2681, -11.0298], [-37.2591, -11.0355], [-37.2503, -11.0352], [-37.2298, -11.0397], [-37.2256, -11.0434], [-37.2247, -11.0661], [-37.2176, -11.078], [-37.202, -11.0877], [-37.188, -11.0917], [-37.1664, -11.1054], [-37.1621, -11.0938], [-37.1737, -11.0803], [-37.1701, -11.0714], [-37.1611, -11.0584], [-37.1491, -11.0558], [-37.1391, -11.0629], [-37.0914, -10.941], [-37.1021, -10.9171]]]}}, {"type": "Feature", "properties": {"nome": "Itaporanga d'Ajuda", "municipio": "Itaporanga d'Ajuda", "fonte": "IBGE (malha territorial oficial)", "municipio_ibge_nome": "Itaporanga d'Ajuda", "municipio_ibge_codigo": "2803203"}, "geometry": {"type": "Polygon", "coordinates": [[[-37.3888, -11.053], [-37.3844, -11.0562], [-37.3779, -11.0701], [-37.3677, -11.0726], [-37.36, -11.0868], [-37.3512, -11.0906], [-37.3411, -11.1033], [-37.3356, -11.1162], [-37.339, -11.1196], [-37.3394, -11.1298], [-37.3313, -11.1376], [-37.3365, -11.1495], [-37.3399, -11.1685], [-37.3469, -11.1854], [-37.3497, -11.1969], [-37.3321, -11.2118], [-37.328, -11.2199], [-37.3303, -11.2282], [-37.3282, -11.2379], [-37.3158, -11.245], [-37.3117, -11.2507], [-37.2751, -11.2792], [-37.2602, -11.2896], [-37.2483, -11.2734], [-37.207, -11.2229], [-37.1846, -11.1998], [-37.1661, -11.1825], [-37.1586, -11.166], [-37.1545, -11.1616], [-37.1645, -11.1503], [-37.1655, -11.1433], [-37.1643, -11.1169], [-37.1664, -11.1054], [-37.188, -11.0917], [-37.202, -11.0877], [-37.2176, -11.078], [-37.2247, -11.0661], [-37.2256, -11.0434], [-37.2298, -11.0397], [-37.2503, -11.0352], [-37.2591, -11.0355], [-37.2681, -11.0298], [-37.2762, -11.0308], [-37.2837, -11.0196], [-37.302, -11.0087], [-37.3007, -11.0053], [-37.3038, -10.9861], [-37.3199, -10.9809], [-37.3282, -10.9749], [-37.325, -10.9687], [-37.3325, -10.9634], [-37.335, -10.9437], [-37.3277, -10.9331], [-37.3304, -10.9305], [-37.3184, -10.8345], [-37.3291, -10.8334], [-37.3371, -10.8396], [-37.3394, -10.8473], [-37.3504, -10.8497], [-37.3636, -10.8471], [-37.3705, -10.8522], [-37.3877, -10.8511], [-37.4048, -10.843], [-37.4064, -10.8348], [-37.4032, -10.8258], [-37.4558, -10.8817], [-37.464, -10.8925], [-37.4729, -10.8929], [-37.4855, -10.8987], [-37.4902, -10.9035], [-37.498, -10.9045], [-37.5036, -10.9011], [-37.4556, -10.9775], [-37.4394, -10.9806], [-37.4338, -10.9872], [-37.4258, -10.9893], [-37.4259, -11.0009], [-37.4123, -11.0106], [-37.4044, -11.0349], [-37.3888, -11.053]]]}}]}