{"type": "FeatureCollection", "features": [{"type": "Feature", "properties": {"nome": "Itabaiana", "municipio": "Itabaiana", "fonte": "IBGE (malha territorial oficial)", "municipio_ibge_nome": "Itabaiana", "municipio_ibge_codigo": "2802908"}, "geometry": {"type": "Polygon", "coordinates": [[[-37.3945, -10.5823], [-37.4226, -10.5763], [-37.4597, -10.5943], [-37.4745, -10.5665], [-37.5095, -10.6262], [-37.5305, -10.6458], [-37.5181, -10.6566], [-37.5188, -10.6655], [-37.5079, -10.6718], [-37.5008, -10.6885], [-37.4958, -10.6948], [-37.4798, -10.7006], [-37.4729, -10.7107], [-37.463, -10.7126], [-37.4568, -10.7215], [-37.4486, -10.7479], [-37.4518, -10.7675], [-37.4466, -10.7826], [-37.4491, -10.7897], [-37.4314, -10.8313], [-37.4022, -10.825], [-37.3961, -10.8098], [-37.3617, -10.7385], [-37.3363, -10.7218], [-37.331, -10.7183], [-37.3205, -10.6922], [-37.3289, -10.6537], [-37.3375, -10.6532], [-37.3459, -10.6574], [-37.3548, -10.6569], [-37.3598, -10.6472], [-37.3663, -10.6424], [-37.3696, -10.6296], [-37.3807, -10.631], [-37.3884, -10.6288], [-37.3878, -10.6141], [-37.3899, -10.6017], [-37.3872, -10.5982], [-37.3945, -10.5823]]]}}, {"type": "Feature", "properties": {"nome": "Areia Branca", "municipio": "Areia Branca", "fonte": "IBGE (malha territorial oficial)", "municipio_ibge_nome": "Areia Branca", "municipio_ibge_codigo": "2800506"}, "geometry": {"type": "Polygon", "coordinates": [[[-37.2814, -10.7202], [-37.2915, -10.7223], [-37.2982, -10.7314], [-37.309, -10.7347], [-37.3318, -10.7259], [-37.3363, -10.7218], [-37.3617, -10.7385], [-37.3961, -10.8098], [-37.4022, -10.825], [-37.4032, -10.8258], [-37.4064, -10.8348], [-37.4048, -10.843], [-37.3877, -10.8511], [-37.3705, -10.8522], [-37.3636, -10.8471], [-37.3504, -10.8497], [-37.3394, -10.8473], [-37.3371, -10.8396], [-37.3291, -10.8334], [-37.3184, -10.8345], [-37.3181, -10.8322], [-37.3177, -10.8316], [-37.2732, -10.7987], [-37.2445, -10.7784], [-37.2725, -10.7528], [-37.2706, -10.7465], [-37.2789, -10.7414], [-37.2831, -10.7317], [-37.2781, -10.7256], [-37.2814, -10.7202]]]}}, {"type": "Feature", "properties": {"nome": "C. do Brito", "municipio": "C. do Brito", "fonte": "IBGE (malha territorial oficial)", "municipio_ibge_nome": "Campo do Brito", "municipio_ibge_codigo": "2801009"}, "geometry": {"type": "Polygon", "coordinates": [[[-37.595, -10.6957], [-37.5887, -10.7031], [-37.5853, -10.7144], [-37.588, -10.7222], [-37.56, -10.7573], [-37.5663, -10.7664], [-37.5579, -10.7816], [-37.5476, -10.7833], [-37.5438, -10.7803], [-37.5279, -10.7904], [-37.5196, -10.793], [-37.517, -10.8034], [-37.5245, -10.819], [-37.5136, -10.8251], [-37.5054, -10.8255], [-37.4967, -10.8324], [-37.4793, -10.8407], [-37.483, -10.8539], [-37.4701, -10.8516], [-37.4626, -10.8593], [-37.4622, -10.8666], [-37.457, -10.8707], [-37.4558, -10.8817], [-37.4032, -10.8258], [-37.4022, -10.825], [-37.4314, -10.8313], [-37.4491, -10.7897], [-37.4466, -10.7826], [-37.4518, -10.7675], [-37.4486, -10.7479], [-37.4568, -10.7215], [-37.463, -10.7126], [-37.4729, -10.7107], [-37.4798, -10.7006], [-37.4958, -10.6948], [-37.5008, -10.6885], [-37.5331, -10.689], [-37.5335, -10.6924], [-37.5457, -10.6975], [-37.5543, -10.6965], [-37.561, -10.6915], [-37.5761, -10.6885], [-37.586, -10.681], [-37.595, -10.6957]]]}}, {"type": "Feature", "properties": {"nome": "Carira", "municipio": "Carira", "fonte": "IBGE (malha territorial oficial)", "municipio_ibge_nome": "Carira", "municipio_ibge_codigo": "2801405"}, "geometry": {"type": "Polygon", "coordinates": [[[-37.5966, -10.2505], [-37.6065, -10.2395], [-37.6102, -10.2455], [-37.6289, -10.2413], [-37.6491, -10.226], [-37.654, -10.218], [-37.6769, -10.2061], [-37.691, -10.2043], [-37.7008, -10.2007], [-37.7031, -10.192], [-37.7212, -10.1878], [-37.7324, -10.1944], [-37.7452, -10.1978], [-37.7656, -10.1962], [-37.7471, -10.2381], [-37.7657, -10.2519], [-37.7592, -10.2535], [-37.7489, -10.2643], [-37.7501, -10.2888], [-37.7552, -10.2926], [-37.7687, -10.2892], [-37.7451, -10.3136], [-37.7433, -10.3384], [-37.7569, -10.3431], [-37.7672, -10.3416], [-37.7865, -10.3481], [-37.7877, -10.3561], [-37.799, -10.3634], [-37.831, -10.3748], [-37.8394, -10.3813], [-37.8431, -10.4031], [-37.8532, -10.4065], [-37.852, -10.4162], [-37.854, -10.4258], [-37.8593, -10.4285], [-37.8477, -10.4435], [-37.8253, -10.4795], [-37.8212, -10.4834], [-37.8127, -10.5091], [-37.8153, -10.5173], [-37.7988, -10.5101], [-37.7812, -10.5105], [-37.7732, -10.5067], [-37.7626, -10.5082], [-37.7483, -10.5134], [-37.7302, -10.5163], [-37.7226, -10.5101], [-37.6811, -10.4809], [-37.6247, -10.4122], [-37.5755, -10.3705], [-37.5797, -10.3429], [-37.5778, -10.3291], [-37.5815, -10.3246], [-37.6114, -10.2775], [-37.5966, -10.2505]]]}}, {"type": "Feature", "properties": {"nome": "Frei Paulo", "municipio": "Frei Paulo", "fonte": "IBGE (malha territorial oficial)", "municipio_ibge_nome": "Frei Paulo", "municipio_ibge_codigo": "2802304"}, "geometry": {"type": "Polygon", "coordinates": [[[-37.4745, -10.5665], [-37.5023, -10.5279], [-37.511, -10.506], [-37.5475, -10.4618], [-37.5583, -10.4441], [-37.5755, -10.3705], [-37.6247, -10.4122], [-37.6811, -10.4809], [-37.7226, -10.5101], [-37.6886, -10.5319], [-37.675, -10.5539], [-37.6412, -10.6046], [-37.6403, -10.6047], [-37.5586, -10.6195], [-37.5305, -10.6458], [-37.5095, -10.6262], [-37.4745, -10.5665]]]}}, {"type": "Feature", "properties": {"nome": "Macambira", "municipio": "Macambira", "fonte": "IBGE (malha territorial oficial)", "municipio_ibge_nome": "Macambira", "municipio_ibge_codigo": "2803708"}, "geometry": {"type": "Polygon", "coordinates": [[[-37.5305, -10.6458], [-37.5586, -10.6195], [-37.6403, -10.6047], [-37.6467, -10.6105], [-37.6518, -10.6289], [-37.6516, -10.6371], [-37.6553, -10.6491], [-37.661, -10.6577], [-37.6685, -10.6757], [-37.6641, -10.6811], [-37.6646, -10.6933], [-37.6605, -10.7014], [-37.6663, -10.7079], [-37.6629, -10.7173], [-37.651, -10.7062], [-37.6477, -10.6973], [-37.6422, -10.7008], [-37.6471, -10.7086], [-37.6369, -10.7132], [-37.6208, -10.7068], [-37.6175, -10.7128], [-37.6118, -10.7133], [-37.6076, -10.7069], [-37.6059, -10.6951], [-37.595, -10.6957], [-37.586, -10.681], [-37.5761, -10.6885], [-37.561, -10.6915], [-37.5543, -10.6965], [-37.5457, -10.6975], [-37.5335, -10.6924], [-37.5331, -10.689], [-37.5008, -10.6885], [-37.5079, -10.6718], [-37.5188, -10.6655], [-37.5181, -10.6566], [-37.5305, -10.6458]]]}}, {"type": "Feature", "properties": {"nome": "Malhador", "municipio": "Malhador", "fonte": "IBGE (malha territorial oficial)", "municipio_ibge_nome": "Malhador", "municipio_ibge_codigo": "2803906"}, "geometry": {"type": "Polygon", "coordinates": [[[-37.3289, -10.6537], [-37.3205, -10.6922], [-37.331, -10.7183], [-37.3363, -10.7218], [-37.3318, -10.7259], [-37.309, -10.7347], [-37.2982, -10.7314], [-37.2915, -10.7223], [-37.2814, -10.7202], [-37.2754, -10.711], [-37.2692, -10.7152], [-37.2589, -10.7017], [-37.2357, -10.7074], [-37.2291, -10.7018], [-37.2303, -10.6947], [-37.2272, -10.6836], [-37.2304, -10.6743], [-37.2387, -10.6637], [-37.2459, -10.6612], [-37.244, -10.6533], [-37.2473, -10.6484], [-37.2589, -10.6493], [-37.2692, -10.6337], [-37.2782, -10.6331], [-37.2824, -10.617], [-37.2955, -10.6109], [-37.2964, -10.601], [-37.3262, -10.6232], [-37.3323, -10.6396], [-37.3289, -10.6537]]]}}, {"type": "Feature", "properties": {"nome": "M. Bonita", "municipio": "M. Bonita", "fonte": "IBGE (malha territorial oficial)", "municipio_ibge_nome": "Moita Bonita", "municipio_ibge_codigo": "2804102"}, "geometry": {"type": "Polygon", "coordinates": [[[-37.248, -10.5944], [-37.2626, -10.579], [-37.2842, -10.5736], [-37.2962, -10.5766], [-37.3028, -10.5747], [-37.3107, -10.5656], [-37.3205, -10.5402], [-37.3323, -10.543], [-37.3475, -10.5404], [-37.3644, -10.5517], [-37.3639, -10.559], [-37.3739, -10.5616], [-37.3771, -10.5671], [-37.3934, -10.5786], [-37.3945, -10.5823], [-37.3872, -10.5982], [-37.3899, -10.6017], [-37.3878, -10.6141], [-37.3884, -10.6288], [-37.3807, -10.631], [-37.3696, -10.6296], [-37.3663, -10.6424], [-37.3598, -10.6472], [-37.3548, -10.6569], [-37.3459, -10.6574], [-37.3375, -10.6532], [-37.3289, -10.6537], [-37.3323, -10.6396], [-37.3262, -10.6232], [-37.2964, -10.601], [-37.2932, -10.5945], [-37.2859, -10.593], [-37.2785, -10.5866], [-37.2646, -10.5868], [-37.2537, -10.5958], [-37.248, -10.5944]]]}}, {"type": "Feature", "properties": {"nome": "N.S. Aparecida", "municipio": "N.S. Aparecida", "fonte": "IBGE (malha territorial oficial)", "municipio_ibge_nome": "Nossa Senhora Aparecida", "municipio_ibge_codigo": "2804458"}, "geometry": {"type": "Polygon", "coordinates": [[[-37.4104, -10.4168], [-37.4098, -10.3555], [-37.413, -10.346], [-37.4117, -10.3323], [-37.4067, -10.3217], [-37.4033, -10.292], [-37.4097, -10.3046], [-37.4187, -10.3068], [-37.4272, -10.3011], [-37.4314, -10.3054], [-37.4395, -10.2972], [-37.4462, -10.2957], [-37.4591, -10.2879], [-37.4611, -10.2787], [-37.4789, -10.2906], [-37.4895, -10.2831], [-37.496, -10.2906], [-37.5045, -10.2953], [-37.5079, -10.2909], [-37.5321, -10.283], [-37.5369, -10.2785], [-37.54, -10.2588], [-37.5584, -10.258], [-37.5634, -10.2599], [-37.5821, -10.2422], [-37.5889, -10.2438], [-37.5966, -10.2505], [-37.6114, -10.2775], [-37.5815, -10.3246], [-37.5778, -10.3291], [-37.5797, -10.3429], [-37.5755, -10.3705], [-37.5583, -10.4441], [-37.5475, -10.4618], [-37.5215, -10.4616], [-37.4745, -10.4599], [-37.4211, -10.4018], [-37.4104, -10.4168]]]}}, {"type": "Feature", "properties": {"nome": "Pedra Mole", "municipio": "Pedra Mole", "fonte": "IBGE (malha territorial oficial)", "municipio_ibge_nome": "Pedra Mole", "municipio_ibge_codigo": "2805000"}, "geometry": {"type": "Polygon", "coordinates": [[[-37.6629, -10.7173], [-37.6663, -10.7079], [-37.6605, -10.7014], [-37.6646, -10.6933], [-37.6641, -10.6811], [-37.6685, -10.6757], [-37.661, -10.6577], [-37.6553, -10.6491], [-37.6516, -10.6371], [-37.6518, -10.6289], [-37.6467, -10.6105], [-37.6403, -10.6047], [-37.6412, -10.6046], [-37.675, -10.5539], [-37.6886, -10.5319], [-37.6954, -10.582], [-37.7005, -10.5846], [-37.7066, -10.5998], [-37.7049, -10.606], [-37.7125, -10.6089], [-37.7185, -10.6176], [-37.7195, -10.6274], [-37.7128, -10.6329], [-37.7066, -10.6331], [-37.6979, -10.6475], [-37.7068, -10.6563], [-37.7098, -10.6719], [-37.7029, -10.6712], [-37.7018, -10.6786], [-37.6829, -10.6876], [-37.6845, -10.6945], [-37.6764, -10.6972], [-37.6739, -10.7026], [-37.6828, -10.7056], [-37.6774, -10.7154], [-37.6682, -10.7086], [-37.6629, -10.7173]]]}}, {"type": "Feature", "properties": {"nome": "Pinhão", "municipio": "Pinhão", "fonte": "IBGE (malha territorial oficial)", "municipio_ibge_nome": "Pinhão", "municipio_ibge_codigo": "2805208"}, "geometry": {"type": "Polygon", "coordinates": [[[-37.8063, -10.6005], [-37.7994, -10.5916], [-37.7853, -10.6009], [-37.7756, -10.6017], [-37.767, -10.6066], [-37.7662, -10.6194], [-37.7558, -10.6238], [-37.7498, -10.6212], [-37.7399, -10.6325], [-37.7316, -10.6301], [-37.7223, -10.6337], [-37.7241, -10.6413], [-37.7154, -10.6452], [-37.7066, -10.6331], [-37.7128, -10.6329], [-37.7195, -10.6274], [-37.7185, -10.6176], [-37.7125, -10.6089], [-37.7049, -10.606], [-37.7066, -10.5998], [-37.7005, -10.5846], [-37.6954, -10.582], [-37.6886, -10.5319], [-37.7226, -10.5101], [-37.7302, -10.5163], [-37.7483, -10.5134], [-37.7626, -10.5082], [-37.7732, -10.5067], [-37.7812, -10.5105], [-37.7988, -10.5101], [-37.8153, -10.5173], [-37.8224, -10.5306], [-37.8215, -10.5398], [-37.829, -10.5405], [-37.8318, -10.5515], [-37.8377, -10.5479], [-37.8412, -10.5551], [-37.8326, -10.5611], [-37.8308, -10.585], [-37.8172, -10.5864], [-37.8148, -10.5954], [-37.8063, -10.6005]]]}}, {"type": "Feature", "properties": {"nome": "Ribeirópolis", "municipio": "Ribeirópolis", "fonte": "IBGE (malha territorial oficial)", "municipio_ibge_nome": "Ribeirópolis", "municipio_ibge_codigo": "2806008"}, "geometry": {"type": "Polygon", "coordinates": [[[-37.3598, -10.4835], [-37.37, -10.4591], [-37.372, -10.4475], [-37.4104, -10.4168], [-37.4211, -10.4018], [-37.4745, -10.4599], [-37.5215, -10.4616], [-37.5475, -10.4618], [-37.511, -10.506], [-37.5023, -10.5279], [-37.4745, -10.5665], [-37.4597, -10.5943], [-37.4226, -10.5763], [-37.3945, -10.5823], [-37.3934, -10.5786], [-37.3771, -10.5671], [-37.3739, -10.5616], [-37.3639, -10.559], [-37.3644, -10.5517], [-37.3475, -10.5404], [-37.3323, -10.543], [-37.3205, -10.5402], [-37.3468, -10.5068], [-37.3598, -10.4835]]]}}, {"type": "Feature", "properties": {"nome": "S. Domingos", "municipio": "S. Domingos", "fonte": "IBGE (malha territorial oficial)", "municipio_ibge_nome": "São Domingos", "municipio_ibge_codigo": "2806800"}, "geometry": {"type": "Polygon", "coordinates": [[[-37.6175, -10.7128], [-37.631, -10.7265], [-37.6285, -10.7428], [-37.6202, -10.7487], [-37.6092, -10.7633], [-37.6019, -10.7849], [-37.6143, -10.7963], [-37.6102, -10.8123], [-37.6001, -10.8144], [-37.5946, -10.8266], [-37.5764, -10.8388], [-37.563, -10.8351], [-37.552, -10.8404], [-37.5446, -10.8352], [-37.5358, -10.8415], [-37.5316, -10.8398], [-37.5188, -10.8452], [-37.5119, -10.8436], [-37.5103, -10.8372], [-37.4967, -10.8324], [-37.5054, -10.8255], [-37.5136, -10.8251], [-37.5245, -10.819], [-37.517, -10.8034], [-37.5196, -10.793], [-37.5279, -10.7904], [-37.5438, -10.7803], [-37.5476, -10.7833], [-37.5579, -10.7816], [-37.5663, -10.7664], [-37.56, -10.7573], [-37.588, -10.7222], [-37.5853, -10.7144], [-37.5887, -10.7031], [-37.595, -10.6957], [-37.6059, -10.6951], [-37.6076, -10.7069], [-37.6118, -10.7133], [-37.6175, -10.7128]]]}}, {"type": "Feature", "properties": {"nome": "S.M. Aleixo", "municipio": "S.M. Aleixo", "fonte": "IBGE (malha territorial oficial)", "municipio_ibge_nome": "São Miguel do Aleixo", "municipio_ibge_codigo": "2807006"}, "geometry": {"type": "Polygon", "coordinates": [[[-37.4104, -10.4168], [-37.372, -10.4475], [-37.37, -10.4591], [-37.3598, -10.4835], [-37.3495, -10.4916], [-37.2746, -10.4659], [-37.2804, -10.4615], [-37.2891, -10.4672], [-37.2918, -10.4562], [-37.2878, -10.4543], [-37.3015, -10.4364], [-37.3041, -10.4286], [-37.3225, -10.4343], [-37.3309, -10.4319], [-37.3342, -10.4263], [-37.3253, -10.4186], [-37.3341, -10.4055], [-37.3474, -10.3958], [-37.3412, -10.3842], [-37.349, -10.3844], [-37.3491, -10.3715], [-37.3553, -10.3696], [-37.3499, -10.3564], [-37.3542, -10.344], [-37.3587, -10.3455], [-37.3627, -10.3281], [-37.3729, -10.3281], [-37.3829, -10.3156], [-37.3848, -10.2984], [-37.3955, -10.2884], [-37.3898, -10.2763], [-37.3919, -10.2641], [-37.3971, -10.2569], [-37.4051, -10.2578], [-37.4033, -10.292], [-37.4067, -10.3217], [-37.4117, -10.3323], [-37.413, -10.346], [-37.4098, -10.3555], [-37.4104, -10.4168]]]}}]}